HORYU-4                 
1 41340U 16012D   22004.90586046  .00001270  00000+0  87257-4 0  9990
2 41340  31.0056 322.6777 0013478  13.8308 346.2695 15.02299967323103
SES-9                   
1 41380U 16013A   22004.76458341 -.00000348  00000+0  00000+0 0  9997
2 41380   0.0377 288.8418 0000641 112.5257  86.5164  1.00269952 21151
EUTELSAT 65 WEST A      
1 41382U 16014A   22004.87351910 -.00000278  00000+0  00000+0 0  9998
2 41382   0.0488 357.4137 0001915 288.0230  68.2418  1.00267877 21256
IRNSS-1F                
1 41384U 16015A   22004.89305598  .00000157  00000+0  00000+0 0  9999
2 41384   2.0221 169.9963 0020127 183.2068 105.3442  1.00279218 21374
RESURS P3               
1 41386U 16016A   22005.12486536  .00001671  00000+0  53508-4 0  9999
2 41386  97.2153  91.9380 0001947 257.5152 162.4019 15.33770471325268
COSMOS 2515             
1 41394U 16020A   22005.15880930  .00001319  00000+0  11218-3 0  9992
2 41394  97.8555 320.2752 0034862  24.5239 335.7629 14.99168706316478
BEIDOU IGSO-6           
1 41434U 16021A   22004.90023266 -.00000162  00000+0  00000+0 0  9990
2 41434  57.8579  54.5362 0045131 216.1986 253.7849  1.00273634 21198
SENTINEL-1B             
1 41456U 16025A   22005.14998619  .00000017  00000+0  13402-4 0  9991
2 41456  98.1818  14.8622 0001377  84.9486 275.1876 14.59200488303370
E-ST@R-II               
1 41459U 16025D   22005.16453625  .00005818  00000+0  27303-3 0  9997
2 41459  98.1656 158.9583 0156405 102.1754 259.7025 15.09808612312837
AAUSAT 4                
1 41460U 16025E   22005.00423023  .00007303  00000+0  32007-3 0  9999
2 41460  98.1625 163.7728 0141208  83.1601 278.5614 15.13702017313172
MVL-300                 
1 41464U 16026A   22005.21203256  .00001890  00000+0  61896-4 0  9995
2 41464  97.0716 239.5313 0012976  43.6623 104.8272 15.32773751317934
AIST-2D (RS-48)         
1 41465U 16026B   22005.23626112  .00005782  00000+0  15713-3 0  9998
2 41465  97.0791 247.2485 0011111  15.4871  99.7277 15.37873184318424
IRNSS-1G                
1 41469U 16027A   22004.89646514 -.00000337  00000+0  00000+0 0  9993
2 41469   1.9731 173.2495 0003199 252.0802 131.3986  1.00271228 20892
JCSAT-2B                
1 41471U 16028A   22004.91721547 -.00000169  00000+0  00000+0 0  9993
2 41471   0.0180  26.9568 0001743 257.2564 304.4501  1.00269438 20833
YAOGAN 30               
1 41473U 16029A   22005.12926789  .00000227  00000+0  39647-4 0  9993
2 41473  97.7819  50.5257 0017604  68.7161 291.5921 14.76383561304058
GSAT0211 (GALILEO 14)   
1 41549U 16030A   22003.95697034  .00000005  00000+0  00000+0 0  9996
2 41549  55.8768 266.4198 0004952 341.2932  18.7677  1.70474313 34962
GSAT0210 (GALILEO 13)   
1 41550U 16030B   22003.66309557  .00000007  00000+0  00000+0 0  9998
2 41550  55.8767 266.4294 0003575 320.0408  40.0117  1.70474412 34959
THAICOM 8               
1 41552U 16031A   22005.11747806 -.00000124  00000+0  00000+0 0  9997
2 41552   0.0901  86.6196 0003292 239.3422 259.5262  1.00272401 20499
COSMOS 2516 [GLONASS-M] 
1 41554U 16032A   22005.07663875  .00000036  00000+0  00000+0 0  9999
2 41554  63.9486 247.1276 0012589 217.6826 327.9471  2.13106141 43619
ZIYUAN 3-2 (ZY 3-2)     
1 41556U 16033A   22005.20356106  .00002063  00000+0  94877-4 0  9995
2 41556  97.3057  76.7958 0002234 141.2805 280.1794 15.21436154311084
NUSAT-1 (FRESCO)        
1 41557U 16033B   22005.21085939  .00005281  00000+0  17886-3 0  9999
2 41557  97.3923 103.1852 0010881 233.7247 182.1346 15.30959801312386
NUSAT-2 (BATATA)        
1 41558U 16033C   22005.19642894  .00005376  00000+0  17043-3 0  9996
2 41558  97.4069 107.9824 0010018 224.9043 197.8601 15.33093401312619
COSMOS 2517 (GEO-IK 2)  
1 41579U 16034A   22005.14239334 -.00000002  00000+0  36565-4 0  9999
2 41579  99.2281  20.8827 0000682  47.1529 312.9687 13.85912797282673
INTELSAT 31 (IS-31)     
1 41581U 16035A   22005.03536588 -.00000154  00000+0  00000+0 0  9990
2 41581   0.0307 258.1167 0002665 289.5672 194.5925  1.00275714 20407
BEIDOU-2 G7             
1 41586U 16037A   22004.88950896 -.00000358  00000+0  00000+0 0  9997
2 41586   1.6168  66.7025 0008416   3.4058 105.0654  1.00274823 20508
ABS-2A (MONGOLSAT-1)    
1 41588U 16038A   22004.82964828 -.00000086  00000+0  00000+0 0  9992
2 41588   0.0109  62.1580 0001213 138.6022 277.0011  1.00270710 20412
EUTELSAT 117 WEST B     
1 41589U 16038B   22005.15627345 -.00000015  00000+0  00000+0 0  9992
2 41589   0.0421 198.6656 0000145 132.8722  72.4481  1.00273986 20422
BRISAT                  
1 41591U 16039A   22004.77295638 -.00000200  00000+0  00000+0 0  9995
2 41591   0.0220  31.5485 0001901 252.3840 249.1715  1.00268828 20339
ECHOSTAR 18             
1 41592U 16039B   22004.81716146 -.00000284  00000+0  00000+0 0  9995
2 41592   0.0177  34.8953 0001251 246.4541  55.8634  1.00271333 20334
CARTOSAT-2C             
1 41599U 16040A   22005.19530689 -.00002060  00000+0 -94502-4 0  9992
2 41599  97.5146  65.9942 0014408  41.6374  43.6175 15.19165243307147
SKYSAT-C1               
1 41601U 16040C   22005.14926738  .00003587  00000+0  89612-4 0  9994
2 41601  97.1742  83.9212 0000769  87.2012 272.9323 15.40794904308867
GHGSAT-D                
1 41602U 16040D   22005.12565572  .00001922  00000+0  80499-4 0  9993
2 41602  97.2322  56.8995 0008632   5.3574 354.7755 15.24682730307762
LAPAN-A3                
1 41603U 16040E   22005.15158137  .00000644  00000+0  32673-4 0  9993
2 41603  97.2302  49.1224 0014176  21.6282  63.7885 15.20229309307225
BIROS                   
1 41604U 16040F   22005.12963216  .00001331  00000+0  59186-4 0  9995
2 41604  97.2361  55.5871 0011832 358.4355   1.6843 15.23130347307599
M3MSAT                  
1 41605U 16040G   22004.78293654  .00001374  00000+0  62231-4 0  9991
2 41605  97.2353  53.4167 0012185  15.1380 345.0219 15.22447543307425
SWAYAM                  
1 41607U 16040J   22004.66724895  .00004481  00000+0  16867-3 0  9991
2 41607  97.2418  59.9447 0011764 353.5195   6.5891 15.27555255307741
FLOCK 2P-9              
1 41610U 16040M   22005.11695648  .00003049  00000+0  10908-3 0  9998
2 41610  97.2563  67.0445 0008509 332.5312  27.5478 15.29510128308056
FLOCK 2P-8              
1 41613U 16040Q   22004.69585974  .00003912  00000+0  13945-3 0  9996
2 41613  97.2611  67.6037 0008620 344.2175  15.8796 15.29457249308155
FLOCK 2P-3              
1 41618U 16040V   22004.86533733  .00003647  00000+0  12991-3 0  9991
2 41618  97.2635  68.2147 0008405 344.1724  15.9253 15.29530092308185
BEESAT-4                
1 41619U 16040W   22005.13905681  .00003722  00000+0  14256-3 0  9998
2 41619  97.2430  60.4361 0009699 347.1370  12.9620 15.27101152295771
MUOS-5                  
1 41622U 16041A   22004.86584389 -.00000139  00000+0  00000+0 0  9998
2 41622   5.9902 302.2317 0197496 232.9270 135.9662  1.00269895 20803
SJ 16-02                
1 41634U 16043A   22005.10224201  .00000517  00000+0  62369-4 0  9995
2 41634  75.0045  93.0748 0007260   3.1381 356.9854 14.85920905299398
TIANTONG-1 1            
1 41725U 16048A   22004.83496860 -.00000318  00000+0  00000+0 0  9991
2 41725   2.3663 351.1370 0004791 330.8927 184.3082  1.00266686 19982
GAOFEN 3                
1 41727U 16049A   22005.08313493  .00000013  00000+0  17289-4 0  9995
2 41727  98.4094  15.7137 0001936  83.8156 276.3256 14.42221646284547
JCSAT-16                
1 41729U 16050A   22004.84194606 -.00000328  00000+0  00000+0 0  9993
2 41729   0.0945  90.0037 0000745 355.1019  98.7900  1.00079441 19786
QSS (MOZI)              
1 41731U 16051A   22005.19027054  .00001331  00000+0  54434-4 0  9997
2 41731  97.3435 279.0819 0013377 157.5564 306.6367 15.26015985299967
USA 271                 
1 41745U 16052B   21362.44556334 -.00000343  00000+0  00000+0 0  9992
2 41745   0.0874 104.8295 0011364  50.8804 217.8705  1.00409681  2383
INTELSAT 36 (IS-36)     
1 41747U 16053A   22004.83313164 -.00000027  00000+0  00000+0 0  9993
2 41747   0.0106  10.8559 0000706 348.8853 113.0903  1.00269600 19665
INTELSAT 33E (IS-33E)   
1 41748U 16053B   22004.39611816  .00000047  00000+0  00000+0 0  9991
2 41748   0.0208  16.2833 0001475 259.4018  30.8678  1.00271193 19955
INSAT-3DR               
1 41752U 16054A   22004.83261083 -.00000080  00000+0  00000+0 0  9991
2 41752   0.1417  97.2461 0012960 174.2960 206.5783  1.00271115 19537
PERUSAT 1               
1 41770U 16058A   22005.09383424  .00000102  00000+0  31795-4 0  9992
2 41770  98.1748  80.9191 0001517  80.4051 279.7323 14.58556473282359
SKYSAT-C4               
1 41771U 16058B   22005.12529344  .00003343  00000+0  84378-4 0  9995
2 41771  97.1435  74.4893 0001751  98.7326 261.4120 15.40521554295818
SKYSAT-C5               
1 41772U 16058C   22005.14540136  .00001511  00000+0  63042-4 0  9990
2 41772  97.2899  73.0807 0001946  87.8276 272.3185 15.25160312294874
SKYSAT-C2               
1 41773U 16058D   22004.82941133  .00003552  00000+0  89236-4 0  9997
2 41773  97.1445  74.5926 0002516  92.6818 267.4717 15.40620079295795
SKYSAT-C3               
1 41774U 16058E   22004.72242932  .00004512  00000+0  11308-3 0  9999
2 41774  97.1440  74.4001 0001815  97.9470 262.1983 15.40552488295769
PISAT                   
1 41784U 16059B   22005.11078660  .00000181  00000+0  43569-4 0  9993
2 41784  97.9407  54.6302 0031065 327.8493  32.0814 14.63719632281790
ALSAT 1B                
1 41785U 16059C   22005.06416409  .00000118  00000+0  27728-4 0  9994
2 41785  97.9359  54.0641 0010579  37.1539 323.0398 14.69960324281811
ALSAT 2B                
1 41786U 16059D   22005.07226632  .00000196  00000+0  43636-4 0  9995
2 41786  97.9939  72.4336 0001545 104.1709 255.9666 14.66738567282392
PATHFINDER 1            
1 41787U 16059E   22005.13272181  .00000244  00000+0  55321-4 0  9991
2 41787  97.9372  55.1490 0030298 325.3913  34.5365 14.63883369281848
